start=new Date('2022-01-03T00:00:00.000Z').valueOf();
sats=[{"REF_FRAME":"TEME","NORAD_CAT_ID":"46384","EPHEMERIS_TYPE":"0","EPOCH":"2022-01-02T07:28:43.421952","DECAY_DATE":null,"PERIOD":"95.593","RA_OF_ASC_NODE":"33.2763","SEMIMAJOR_AXIS":"6925.385","TIME_SYSTEM":"UTC","OBJECT_ID":"2020-062BM","ECCENTRICITY":"0.00014590","MEAN_MOTION_DOT":"0.00000302","BSTAR":"0.00003918400000","PERIAPSIS":"546.239","OBJECT_TYPE":"PAYLOAD","ELEMENT_SET_NO":"999","GP_ID":"192919262","FILE":"3255248","OBJECT_NAME":"STARLINK-1771","RCS_SIZE":"LARGE","CENTER_NAME":"EARTH","SITE":"AFETR","TLE_LINE1":"1 46384U 20062BM  22002.31161368  .00000302  00000-0  39184-4 0  9994","LAUNCH_DATE":"2020-09-03","MEAN_ELEMENT_THEORY":"SGP4","MEAN_ANOMALY":"281.7197","MEAN_MOTION_DDOT":"0.0000000000000","ARG_OF_PERICENTER":"78.3955","REV_AT_EPOCH":"7409","COUNTRY_CODE":"US","CLASSIFICATION_TYPE":"U","APOAPSIS":"548.260","TLE_LINE2":"2 46384  53.0572  33.2763 0001459  78.3955 281.7197 15.06388243 74094","INCLINATION":"53.0572","MEAN_MOTION":"15.06388243"},{"TIME_SYSTEM":"UTC","PERIOD":"95.593","RA_OF_ASC_NODE":"191.2007","SEMIMAJOR_AXIS":"6925.368","OBJECT_ID":"2020-070A","EPOCH":"2022-01-02T18:37:30.384768","DECAY_DATE":null,"NORAD_CAT_ID":"46532","REF_FRAME":"TEME","EPHEMERIS_TYPE":"0","ELEMENT_SET_NO":"999","OBJECT_TYPE":"PAYLOAD","PERIAPSIS":"545.635","ECCENTRICITY":"0.00023070","MEAN_MOTION_DOT":"0.00001388","BSTAR":"0.00011207000000","MEAN_ANOMALY":"273.2192","MEAN_ELEMENT_THEORY":"SGP4","LAUNCH_DATE":"2020-10-06","SITE":"AFETR","TLE_LINE1":"1 46532U 20070A   22002.77604612  .00001388  00000-0  11207-3 0  9992","RCS_SIZE":"LARGE","CENTER_NAME":"EARTH","FILE":"3255249","GP_ID":"192944767","OBJECT_NAME":"STARLINK-1644","INCLINATION":"53.0531","MEAN_MOTION":"15.06393810","APOAPSIS":"548.830","TLE_LINE2":"2 46532  53.0531 191.2007 0002307  86.9061 273.2192 15.06393810 69367","COUNTRY_CODE":"US","CLASSIFICATION_TYPE":"U","MEAN_MOTION_DDOT":"0.0000000000000","REV_AT_EPOCH":"6936","ARG_OF_PERICENTER":"86.9061"},{"NORAD_CAT_ID":"46533","REF_FRAME":"TEME","EPHEMERIS_TYPE":"0","EPOCH":"2022-01-02T18:53:25.143648","DECAY_DATE":null,"TIME_SYSTEM":"UTC","PERIOD":"95.592","SEMIMAJOR_AXIS":"6925.356","RA_OF_ASC_NODE":"191.1575","OBJECT_ID":"2020-070B","ECCENTRICITY":"0.00024060","MEAN_MOTION_DOT":"0.00000958","BSTAR":"0.00008322800000","PERIAPSIS":"545.555","OBJECT_TYPE":"PAYLOAD","ELEMENT_SET_NO":"999","FILE":"3255249","GP_ID":"192943016","OBJECT_NAME":"STARLINK-1648","RCS_SIZE":"LARGE","CENTER_NAME":"EARTH","SITE":"AFETR","TLE_LINE1":"1 46533U 20070B   22002.78709657  .00000958  00000-0  83228-4 0  9994","MEAN_ANOMALY":"275.4364","MEAN_ELEMENT_THEORY":"SGP4","LAUNCH_DATE":"2020-10-06","MEAN_MOTION_DDOT":"0.0000000000000","REV_AT_EPOCH":"6936","ARG_OF_PERICENTER":"84.6900","COUNTRY_CODE":"US","CLASSIFICATION_TYPE":"U","APOAPSIS":"548.887","TLE_LINE2":"2 46533  53.0510 191.1575 0002406  84.6900 275.4364 15.06397643 69364","INCLINATION":"53.0510","MEAN_MOTION":"15.06397643"},{"INCLINATION":"53.0543","MEAN_MOTION":"15.06396945","TLE_LINE2":"2 46534  53.0543 190.9287 0001772  83.0141 277.1049 15.06396945 69377","APOAPSIS":"548.450","CLASSIFICATION_TYPE":"U","COUNTRY_CODE":"US","ARG_OF_PERICENTER":"83.0141","REV_AT_EPOCH":"6937","MEAN_MOTION_DDOT":"0.0000000000000","LAUNCH_DATE":"2020-10-06","MEAN_ANOMALY":"277.1049","MEAN_ELEMENT_THEORY":"SGP4","TLE_LINE1":"1 46534U 20070C   22002.83501323  .00000431  00000-0  47840-4 0  9997","SITE":"AFETR","CENTER_NAME":"EARTH","RCS_SIZE":"LARGE","OBJECT_NAME":"STARLINK-1659","FILE":"3255249","GP_ID":"192943266","ELEMENT_SET_NO":"999","OBJECT_TYPE":"PAYLOAD","PERIAPSIS":"545.996","MEAN_MOTION_DOT":"0.00000431","BSTAR":"0.00004784000000","ECCENTRICITY":"0.00017720","OBJECT_ID":"2020-070C","PERIOD":"95.592","RA_OF_ASC_NODE":"190.9287","SEMIMAJOR_AXIS":"6925.358","TIME_SYSTEM":"UTC","DECAY_DATE":null,"EPOCH":"2022-01-02T20:02:25.143072","EPHEMERIS_TYPE":"0","REF_FRAME":"TEME","NORAD_CAT_ID":"46534"},{"RCS_SIZE":"LARGE","CENTER_NAME":"EARTH","GP_ID":"192944518","FILE":"3255249","OBJECT_NAME":"STARLINK-1663","LAUNCH_DATE":"2020-10-06","MEAN_ANOMALY":"278.9527","MEAN_ELEMENT_THEORY":"SGP4","SITE":"AFETR","TLE_LINE1":"1 46535U 20070D   22002.82396389  .00000618  00000-0  60453-4 0  9993","COUNTRY_CODE":"US","CLASSIFICATION_TYPE":"U","MEAN_MOTION_DDOT":"0.0000000000000","ARG_OF_PERICENTER":"81.1720","REV_AT_EPOCH":"6936","INCLINATION":"53.0535","MEAN_MOTION":"15.06383881","APOAPSIS":"548.838","TLE_LINE2":"2 46535  53.0535 190.9913 0002275  81.1720 278.9527 15.06383881 69360","REF_FRAME":"TEME","NORAD_CAT_ID":"46535","EPHEMERIS_TYPE":"0","PERIOD":"95.593","RA_OF_ASC_NODE":"190.9913","SEMIMAJOR_AXIS":"6925.398","TIME_SYSTEM":"UTC","OBJECT_ID":"2020-070D","EPOCH":"2022-01-02T19:46:30.480096","DECAY_DATE":null,"MEAN_MOTION_DOT":"0.00000618","ECCENTRICITY":"0.00022750","BSTAR":"0.00006045300000","ELEMENT_SET_NO":"999","OBJECT_TYPE":"PAYLOAD","PERIAPSIS":"545.687"},{"INCLINATION":"53.0516","MEAN_MOTION":"15.81385785","TLE_LINE2":"2 46536  53.0516 136.4357 0015366 318.7250  41.2608 15.81385785 70089","APOAPSIS":"336.825","CLASSIFICATION_TYPE":"U","COUNTRY_CODE":"US","ARG_OF_PERICENTER":"318.7250","REV_AT_EPOCH":"7008","MEAN_MOTION_DDOT":"0.0000000000000","LAUNCH_DATE":"2020-10-06","MEAN_ANOMALY":"41.2608","MEAN_ELEMENT_THEORY":"SGP4","TLE_LINE1":"1 46536U 20070E   22002.22708498  .00106870  00000-0  52153-3 0  9990","SITE":"AFETR","CENTER_NAME":"EARTH","RCS_SIZE":"LARGE","OBJECT_NAME":"STARLINK-1668","FILE":"3255248","GP_ID":"192918774","ELEMENT_SET_NO":"999","PERIAPSIS":"316.220","OBJECT_TYPE":"PAYLOAD","MEAN_MOTION_DOT":"0.00106870","ECCENTRICITY":"0.00153660","BSTAR":"0.00052153000000","OBJECT_ID":"2020-070E","PERIOD":"91.059","RA_OF_ASC_NODE":"136.4357","SEMIMAJOR_AXIS":"6704.658","TIME_SYSTEM":"UTC","DECAY_DATE":null,"EPOCH":"2022-01-02T05:27:00.142272","EPHEMERIS_TYPE":"0","REF_FRAME":"TEME","NORAD_CAT_ID":"46536"},{"TLE_LINE1":"1 46537U 20070F   22002.78342628  .00000642  00000-0  62023-4 0  9999","SITE":"AFETR","LAUNCH_DATE":"2020-10-06","MEAN_ELEMENT_THEORY":"SGP4","MEAN_ANOMALY":"277.2659","OBJECT_NAME":"STARLINK-1672","FILE":"3255249","GP_ID":"192943517","CENTER_NAME":"EARTH","RCS_SIZE":"LARGE","TLE_LINE2":"2 46537  53.0523 191.1716 0002461  82.8610 277.2659 15.06388440 69360","APOAPSIS":"548.953","MEAN_MOTION":"15.06388440","INCLINATION":"53.0523","ARG_OF_PERICENTER":"82.8610","REV_AT_EPOCH":"6936","MEAN_MOTION_DDOT":"0.0000000000000","CLASSIFICATION_TYPE":"U","COUNTRY_CODE":"US","DECAY_DATE":null,"EPOCH":"2022-01-02T18:48:08.030592","OBJECT_ID":"2020-070F","SEMIMAJOR_AXIS":"6925.384","PERIOD":"95.593","RA_OF_ASC_NODE":"191.1716","TIME_SYSTEM":"UTC","EPHEMERIS_TYPE":"0","REF_FRAME":"TEME","NORAD_CAT_ID":"46537","OBJECT_TYPE":"PAYLOAD","PERIAPSIS":"545.545","ELEMENT_SET_NO":"999","MEAN_MOTION_DOT":"0.00000642","BSTAR":"0.00006202300000","ECCENTRICITY":"0.00024610"},{"MEAN_ANOMALY":"278.3775","MEAN_ELEMENT_THEORY":"SGP4","LAUNCH_DATE":"2020-10-06","SITE":"AFETR","TLE_LINE1":"1 46538U 20070G   22002.82764810 -.00000942  00000-0 -44310-4 0  9990","RCS_SIZE":"LARGE","CENTER_NAME":"EARTH","FILE":"3255249","GP_ID":"192943767","OBJECT_NAME":"STARLINK-1678","MEAN_MOTION":"15.06391817","INCLINATION":"53.0532","APOAPSIS":"548.729","TLE_LINE2":"2 46538  53.0532 190.9710 0002152  81.7458 278.3775 15.06391817 69360","COUNTRY_CODE":"US","CLASSIFICATION_TYPE":"U","MEAN_MOTION_DDOT":"0.0000000000000","REV_AT_EPOCH":"6936","ARG_OF_PERICENTER":"81.7458","TIME_SYSTEM":"UTC","PERIOD":"95.593","SEMIMAJOR_AXIS":"6925.374","RA_OF_ASC_NODE":"190.9710","OBJECT_ID":"2020-070G","EPOCH":"2022-01-02T19:51:48.795840","DECAY_DATE":null,"NORAD_CAT_ID":"46538","REF_FRAME":"TEME","EPHEMERIS_TYPE":"0","ELEMENT_SET_NO":"999","OBJECT_TYPE":"PAYLOAD","PERIAPSIS":"545.748","ECCENTRICITY":"0.00021520","MEAN_MOTION_DOT":"-0.00000942","BSTAR":"-0.00004431000000"},{"EPHEMERIS_TYPE":"0","NORAD_CAT_ID":"46539","REF_FRAME":"TEME","DECAY_DATE":null,"EPOCH":"2022-01-02T22:16:06.148416","OBJECT_ID":"2020-070H","TIME_SYSTEM":"UTC","RA_OF_ASC_NODE":"186.0426","PERIOD":"93.561","SEMIMAJOR_AXIS":"6826.908","BSTAR":"0.01307200000000","MEAN_MOTION_DOT":"0.00552770","ECCENTRICITY":"0.00018410","PERIAPSIS":"447.516","OBJECT_TYPE":"PAYLOAD","ELEMENT_SET_NO":"999","OBJECT_NAME":"STARLINK-1684","FILE":"3255249","GP_ID":"192944018","CENTER_NAME":"EARTH","RCS_SIZE":"LARGE","TLE_LINE1":"1 46539U 20070H   22002.92784894  .00552770  00000-0  13072-1 0  9993","SITE":"AFETR","MEAN_ANOMALY":"310.2491","MEAN_ELEMENT_THEORY":"SGP4","LAUNCH_DATE":"2020-10-06","REV_AT_EPOCH":"6945","ARG_OF_PERICENTER":"49.8674","MEAN_MOTION_DDOT":"0.0000000000000","CLASSIFICATION_TYPE":"U","COUNTRY_CODE":"US","TLE_LINE2":"2 46539  53.0464 186.0426 0001841  49.8674 310.2491 15.39099428 69454","APOAPSIS":"450.030","MEAN_MOTION":"15.39099428","INCLINATION":"53.0464"},{"MEAN_MOTION":"15.06404159","INCLINATION":"53.0556","APOAPSIS":"548.899","TLE_LINE2":"2 46541  53.0556 171.3466 0002452  92.2610 267.8659 15.06404159 69639","COUNTRY_CODE":"US","CLASSIFICATION_TYPE":"U","MEAN_MOTION_DDOT":"0.0000000000000","REV_AT_EPOCH":"6963","ARG_OF_PERICENTER":"92.2610","MEAN_ELEMENT_THEORY":"SGP4","MEAN_ANOMALY":"267.8659","LAUNCH_DATE":"2020-10-06","SITE":"AFETR","TLE_LINE1":"1 46541U 20070K   22002.74100555  .00000732  00000-0  68078-4 0  9997","RCS_SIZE":"LARGE","CENTER_NAME":"EARTH","FILE":"3255249","GP_ID":"192944768","OBJECT_NAME":"STARLINK-1687","ELEMENT_SET_NO":"999","OBJECT_TYPE":"PAYLOAD","PERIAPSIS":"545.503","ECCENTRICITY":"0.00024520","MEAN_MOTION_DOT":"0.00000732","BSTAR":"0.00006807800000","TIME_SYSTEM":"UTC","PERIOD":"95.592","RA_OF_ASC_NODE":"171.3466","SEMIMAJOR_AXIS":"6925.336","OBJECT_ID":"2020-070K","EPOCH":"2022-01-02T17:47:02.879520","DECAY_DATE":null,"NORAD_CAT_ID":"46541","REF_FRAME":"TEME","EPHEMERIS_TYPE":"0"}];
